     2.100          NAVIGATION                              RINEX VERSION / TYPE
fic2rin                                 01/14/2016 00:05:42 PGM / RUN BY / DATE
                                                            END OF HEADER
27 16  1 13  8  0  0.0  .529726967216D-04  .341060513165D-11  .000000000000D+00
     .184000000000D+03 -.191562500000D+02  .479198531971D-08 -.276930792952D+01
    -.100955367088D-05  .301389873493D-02  .224821269512D-05  .515362557983D+04
     .288000000000D+06 -.106170773506D-06 -.836101376738D+00 -.465661287308D-07
     .969850721924D+00  .342250000000D+03  .216905292439D+00 -.845463788389D-08
     .321441960776D-11  .100000000000D+01  .187900000000D+04  .000000000000D+00
     .340000000000D+01  .000000000000D+00  .139698386192D-08  .184000000000D+03
     .280806000000D+06  .400000000000D+01
28 16  1 13  8  0  0.0  .495000276715D-03  .261479726760D-11  .000000000000D+00
     .780000000000D+02  .102625000000D+03  .375229915546D-08 -.203908705547D+01
     .556185841560D-05  .200150284218D-01  .682845711708D-05  .515370840836D+04
     .288000000000D+06  .266358256340D-06 -.180569581004D+01  .208616256714D-06
     .989302162006D+00  .258531250000D+03 -.162946577276D+01 -.759210195581D-08
     .436446751188D-09  .100000000000D+01  .187900000000D+04  .000000000000D+00
     .240000000000D+01  .000000000000D+00 -.107102096081D-07  .780000000000D+02
     .280806000000D+06  .400000000000D+01
29 16  1 13  8  0  0.0  .651521142572D-03  .113686837722D-11  .000000000000D+00
     .800000000000D+02 -.431562500000D+02  .472233956154D-08 -.194763241722D+00
    -.218302011490D-05  .975934439339D-03  .235997140408D-05  .515362796593D+04
     .288000000000D+06 -.279396772385D-07 -.777380673048D+00 -.111758708954D-07
     .975876595600D+00  .344812500000D+03 -.598631101697D+00 -.846963850873D-08
    -.632169189527D-10  .100000000000D+01  .187900000000D+04  .000000000000D+00
     .240000000000D+01  .000000000000D+00 -.102445483208D-07  .800000000000D+02
     .280806000000D+06  .400000000000D+01
30 16  1 13  8  0  0.0  .836835242808D-04  .477484718431D-11  .000000000000D+00
     .860000000000D+02  .443750000000D+01  .444125642473D-08  .664462071478D+00
     .251457095146D-06  .164254882839D-02  .110808759928D-04  .515365606308D+04
     .288000000000D+06  .130385160446D-07 -.285660186784D+01  .353902578354D-07
     .954021942455D+00  .162718750000D+03  .308536959725D+01 -.800961934708D-08
    -.327513642258D-09  .100000000000D+01  .187900000000D+04  .000000000000D+00
     .240000000000D+01  .000000000000D+00  .325962901115D-08  .860000000000D+02
     .280806000000D+06  .400000000000D+01
31 16  1 13  8  0  0.0  .287247821689D-03 -.159161572810D-11  .000000000000D+00
     .390000000000D+02 -.656250000000D+01  .409624205349D-08  .632159235467D+00
    -.292435288429D-06  .836750213057D-02  .112373381853D-04  .515367558670D+04
     .288000000000D+06  .173225998878D-06 -.289390595848D+01 -.137835741043D-06
     .973094791041D+00  .166562500000D+03 -.456301916064D+00 -.787747098543D-08
    -.416088760338D-09  .100000000000D+01  .187900000000D+04  .000000000000D+00
     .240000000000D+01  .000000000000D+00 -.135041773319D-07  .390000000000D+02
     .280806000000D+06  .400000000000D+01
32 16  1 13  8  0  0.0  .792932696640D-04  .127329258248D-10  .000000000000D+00
     .510000000000D+02  .362812500000D+02  .488984653888D-08  .105863980348D+01
     .195577740669D-05  .113402404822D-01  .952929258347D-05  .515362982559D+04
     .288000000000D+06 -.186264514923D-08  .134104144952D+01  .195577740669D-06
     .946448844193D+00  .188250000000D+03  .209858287314D+00 -.818569811004D-08
     .336442585613D-09  .100000000000D+01  .187900000000D+04  .000000000000D+00
     .240000000000D+01  .000000000000D+00 -.372529029846D-08  .510000000000D+02
     .280806000000D+06  .400000000000D+01
 5 16  1 13  7 59 44.0 -.155861955136D-03  .352429196937D-11  .000000000000D+00
     .180000000000D+02  .418750000000D+02  .481734351884D-08 -.199171747548D+01
     .209361314774D-05  .456954550464D-02  .100210309029D-04  .515371205902D+04
     .287984000000D+06 -.670552253723D-07  .125200741257D+01 -.353902578354D-07
     .946062914701D+00  .179812500000D+03  .487213004960D+00 -.807855078978D-08
     .495377777330D-09  .100000000000D+01  .187900000000D+04  .000000000000D+00
     .240000000000D+01  .000000000000D+00 -.107102096081D-07  .180000000000D+02
     .281886000000D+06  .400000000000D+01
27 16  1 13  7 59 44.0  .529722310603D-04  .341060513165D-11  .000000000000D+00
     .400000000000D+01 -.191562500000D+02  .479234247744D-08 -.277164239421D+01
    -.100955367088D-05  .301390187815D-02  .224821269512D-05  .515362557983D+04
     .287984000000D+06 -.106170773506D-06 -.836101220206D+00 -.465661287308D-07
     .969850713147D+00  .342250000000D+03  .216906006343D+00 -.845463788389D-08
     .321441960776D-11  .100000000000D+01  .187900000000D+04  .000000000000D+00
     .240000000000D+01  .000000000000D+00  .139698386192D-08  .400000000000D+01
     .283026000000D+06  .400000000000D+01
 5 16  1 13  9 59 44.0 -.155836343765D-03  .352429196937D-11  .000000000000D+00
     .190000000000D+02  .309375000000D+02  .481127183736D-08 -.941268496205D+00
     .160373747349D-05  .457001209725D-02  .995397567749D-05  .515371463394D+04
     .295184000000D+06  .875443220139D-07  .125194962438D+01 -.111758708954D-07
     .946065792261D+00  .180562500000D+03  .486922839548D+00 -.816784022333D-08
     .385016037463D-09  .100000000000D+01  .187900000000D+04  .000000000000D+00
     .240000000000D+01  .000000000000D+00 -.107102096081D-07  .190000000000D+02
     .288006000000D+06  .400000000000D+01
27 16  1 13  9 59 44.0  .529969111085D-04  .341060513165D-11  .000000000000D+00
     .190000000000D+02 -.231250000000D+02  .480984320642D-08 -.172158589245D+01
    -.129453837872D-05  .301432737615D-02  .207684934139D-05  .515362438774D+04
     .295184000000D+06 -.260770320892D-07 -.836162611563D+00 -.577419996262D-07
     .969850838957D+00  .344562500000D+03  .217062469820D+00 -.849571102332D-08
     .589310261424D-10  .100000000000D+01  .187900000000D+04  .000000000000D+00
     .240000000000D+01  .000000000000D+00  .139698386192D-08  .190000000000D+02
     .288006000000D+06  .400000000000D+01
 1 16  1 13 10  0  0.0  .902544707060D-05  .909494701773D-12  .000000000000D+00
     .160000000000D+03 -.116281250000D+03  .435375277985D-08  .238707999850D+01
    -.598095357418D-05  .494587642606D-02  .999122858047D-05  .515366225243D+04
     .295200000000D+06 -.577419996262D-07  .221221902872D+00 -.465661287308D-07
     .963951440401D+00  .188625000000D+03  .482053643995D+00 -.795425989828D-08
    -.236795577772D-09  .100000000000D+01  .187900000000D+04  .000000000000D+00
     .240000000000D+01  .000000000000D+00  .512227416039D-08  .160000000000D+03
     .288006000000D+06  .400000000000D+01
 2 16  1 13 10  0  0.0  .599113758653D-03  .341060513165D-12  .000000000000D+00
     .101000000000D+03 -.115687500000D+03  .470948188311D-08  .291413852221D+01
    -.599958002567D-05  .152649419615D-01  .953115522861D-05  .515371230507D+04
     .295200000000D+06 -.223517417908D-07  .178648113594D+00 -.245869159698D-06
     .942672028588D+00  .181531250000D+03 -.218740551696D+01 -.794425948172D-08
    -.240724312848D-09  .100000000000D+01  .187900000000D+04  .000000000000D+00
     .240000000000D+01  .000000000000D+00 -.204890966415D-07  .101000000000D+03
     .288006000000D+06  .400000000000D+01
 3 16  1 13 10  0  0.0 -.109178945422D-04 -.500222085975D-11  .000000000000D+00
     .102000000000D+03  .257187500000D+02  .451697386438D-08 -.109012747228D+01
     .130757689476D-05  .333223841153D-03  .108219683170D-04  .515379130936D+04
     .295200000000D+06  .409781932831D-07  .126205167352D+01  .260770320892D-07
     .958934250203D+00  .167406250000D+03  .291922160809D+01 -.797747515100D-08
     .467162316328D-09  .100000000000D+01  .187900000000D+04  .000000000000D+00
     .340000000000D+01  .000000000000D+00  .186264514923D-08  .102000000000D+03
     .288006000000D+06  .400000000000D+01
 6 16  1 13 10  0  0.0  .128368847072D-03  .625277607469D-11  .000000000000D+00
     .109000000000D+03 -.111625000000D+03  .438625413366D-08 -.242891560956D+01
    -.562332570553D-05  .250058132224D-03  .972114503384D-05  .515362266731D+04
     .295200000000D+06  .745058059692D-08  .212773343230D+00 -.428408384323D-07
     .963804643886D+00  .192437500000D+03 -.254071710933D+01 -.798926135623D-08
    -.206794328100D-09  .100000000000D+01  .187900000000D+04  .000000000000D+00
     .240000000000D+01  .000000000000D+00  .419095158577D-08  .109000000000D+03
     .288006000000D+06  .400000000000D+01
 7 16  1 13 10  0  0.0  .473929569125D-03 -.147792889038D-11  .000000000000D+00
     .140000000000D+02 -.149375000000D+02  .419053169532D-08  .169809274180D+01
    -.659376382828D-06  .901956728194D-02  .111199915409D-04  .515368391037D+04
     .295200000000D+06 -.130385160446D-06 -.290270585253D+01  .335276126862D-07
     .968241370134D+00  .170343750000D+03 -.267808823738D+01 -.790140055362D-08
    -.539665336370D-09  .100000000000D+01  .187900000000D+04  .000000000000D+00
     .240000000000D+01  .000000000000D+00 -.111758708954D-07  .140000000000D+02
     .288006000000D+06  .400000000000D+01
 8 16  1 13 10  0  0.0 -.198497436941D-04 -.136424205266D-11  .000000000000D+00
     .720000000000D+02 -.195312500000D+02  .500556564476D-08 -.482172067213D+00
    -.112317502499D-05  .172875099815D-02  .216998159885D-05  .515362687683D+04
     .295200000000D+06 -.670552253723D-07 -.837784504950D+00 -.223517417908D-07
     .961767880098D+00  .340000000000D+03 -.148887857439D+01 -.862821654271D-08
     .317870383435D-10  .100000000000D+01  .187900000000D+04  .000000000000D+00
     .240000000000D+01  .000000000000D+00  .465661287308D-08  .720000000000D+02
     .288006000000D+06  .400000000000D+01
